start=new Date('2023-04-26T00:00:00.000Z').valueOf();
sats=[{"FILE":"3894092","MEAN_MOTION":"15.18444079","ELEMENT_SET_NO":"999","OBJECT_NAME":"STARLINK-3316","TLE_LINE1":"1 50833U 22001AG  23115.47310358  .00033951  00000-0  16359-2 0  9994","TIME_SYSTEM":"UTC","MEAN_MOTION_DOT":"0.00033951","EPOCH":"2023-04-25T11:21:16.149312","APOAPSIS":"513.917","SEMIMAJOR_AXIS":"6888.679","MEAN_ANOMALY":"21.4497","PERIOD":"94.834","RA_OF_ASC_NODE":"196.3408","NORAD_CAT_ID":"50833","REV_AT_EPOCH":"7205","BSTAR":"0.00163590000000","ECCENTRICITY":"0.00048960","SITE":"AFETR","TLE_LINE2":"2 50833  53.2138 196.3408 0004896 338.6294  21.4497 15.18444079 72050","CENTER_NAME":"EARTH","EPHEMERIS_TYPE":"0","MEAN_ELEMENT_THEORY":"SGP4","CLASSIFICATION_TYPE":"U","COUNTRY_CODE":"US","REF_FRAME":"TEME","DECAY_DATE":null,"LAUNCH_DATE":"2022-01-06","ARG_OF_PERICENTER":"338.6294","PERIAPSIS":"507.172","MEAN_MOTION_DDOT":"0.0000000000000","GP_ID":"230743017","RCS_SIZE":"LARGE","OBJECT_ID":"2022-001AG","OBJECT_TYPE":"PAYLOAD","INCLINATION":"53.2138"},{"INCLINATION":"53.2150","OBJECT_TYPE":"PAYLOAD","RCS_SIZE":"LARGE","OBJECT_ID":"2022-001AH","GP_ID":"230743268","MEAN_MOTION_DDOT":"0.0000000000000","PERIAPSIS":"539.098","ARG_OF_PERICENTER":"111.5675","LAUNCH_DATE":"2022-01-06","REF_FRAME":"TEME","DECAY_DATE":null,"COUNTRY_CODE":"US","CLASSIFICATION_TYPE":"U","EPHEMERIS_TYPE":"0","MEAN_ELEMENT_THEORY":"SGP4","CENTER_NAME":"EARTH","TLE_LINE2":"2 50834  53.2150 209.2974 0001110 111.5675 248.5435 15.08800545 71869","SITE":"AFETR","ECCENTRICITY":"0.00011100","BSTAR":"-0.00088274000000","REV_AT_EPOCH":"7186","NORAD_CAT_ID":"50834","RA_OF_ASC_NODE":"209.2974","PERIOD":"95.440","SEMIMAJOR_AXIS":"6918.001","MEAN_ANOMALY":"248.5435","APOAPSIS":"540.634","EPOCH":"2023-04-25T11:01:02.915328","MEAN_MOTION_DOT":"-0.00014294","TIME_SYSTEM":"UTC","TLE_LINE1":"1 50834U 22001AH  23115.45906152 -.00014294  00000-0 -88274-3 0  9993","OBJECT_NAME":"STARLINK-3331","ELEMENT_SET_NO":"999","MEAN_MOTION":"15.08800545","FILE":"3894092"},{"CLASSIFICATION_TYPE":"U","MEAN_ELEMENT_THEORY":"SGP4","EPHEMERIS_TYPE":"0","TLE_LINE2":"2 50835  53.2130 209.3373 0001924  68.2646 291.8551 15.08758488 71869","CENTER_NAME":"EARTH","SITE":"AFETR","DECAY_DATE":null,"REF_FRAME":"TEME","COUNTRY_CODE":"US","REV_AT_EPOCH":"7186","NORAD_CAT_ID":"50835","ECCENTRICITY":"0.00019240","BSTAR":"0.00032140000000","GP_ID":"230744019","MEAN_MOTION_DDOT":"0.0000000000000","INCLINATION":"53.2130","OBJECT_TYPE":"PAYLOAD","RCS_SIZE":"LARGE","OBJECT_ID":"2022-001AJ","PERIAPSIS":"538.664","ARG_OF_PERICENTER":"68.2646","LAUNCH_DATE":"2022-01-06","MEAN_MOTION":"15.08758488","TLE_LINE1":"1 50835U 22001AJ  23115.45267599  .00004820  00000-0  32140-3 0  9992","ELEMENT_SET_NO":"999","OBJECT_NAME":"STARLINK-3310","FILE":"3894092","PERIOD":"95.443","MEAN_ANOMALY":"291.8551","SEMIMAJOR_AXIS":"6918.130","APOAPSIS":"541.326","RA_OF_ASC_NODE":"209.3373","MEAN_MOTION_DOT":"0.00004820","TIME_SYSTEM":"UTC","EPOCH":"2023-04-25T10:51:51.205536"},{"TIME_SYSTEM":"UTC","MEAN_MOTION_DOT":"-0.00010419","EPOCH":"2023-04-25T11:06:21.237984","APOAPSIS":"540.727","SEMIMAJOR_AXIS":"6917.932","MEAN_ANOMALY":"265.8008","PERIOD":"95.439","RA_OF_ASC_NODE":"209.2800","FILE":"3894092","MEAN_MOTION":"15.08823145","ELEMENT_SET_NO":"999","OBJECT_NAME":"STARLINK-3330","TLE_LINE1":"1 50836U 22001AK  23115.46274581 -.00010419  00000-0 -63777-3 0  9996","LAUNCH_DATE":"2022-01-06","ARG_OF_PERICENTER":"94.3138","PERIAPSIS":"538.867","MEAN_MOTION_DDOT":"0.0000000000000","GP_ID":"230742768","RCS_SIZE":"LARGE","OBJECT_ID":"2022-001AK","OBJECT_TYPE":"PAYLOAD","INCLINATION":"53.2167","NORAD_CAT_ID":"50836","REV_AT_EPOCH":"7176","BSTAR":"-0.00063777000000","ECCENTRICITY":"0.00013440","SITE":"AFETR","TLE_LINE2":"2 50836  53.2167 209.2800 0001344  94.3138 265.8008 15.08823145 71766","CENTER_NAME":"EARTH","CLASSIFICATION_TYPE":"U","EPHEMERIS_TYPE":"0","MEAN_ELEMENT_THEORY":"SGP4","COUNTRY_CODE":"US","REF_FRAME":"TEME","DECAY_DATE":null},{"ECCENTRICITY":"0.00017030","BSTAR":"-0.00067457000000","REV_AT_EPOCH":"7200","NORAD_CAT_ID":"50837","REF_FRAME":"TEME","DECAY_DATE":null,"COUNTRY_CODE":"US","CLASSIFICATION_TYPE":"U","MEAN_ELEMENT_THEORY":"SGP4","EPHEMERIS_TYPE":"0","CENTER_NAME":"EARTH","TLE_LINE2":"2 50837  53.2157 199.4581 0001703  94.9117 265.2069 15.08801841 72002","SITE":"AFETR","PERIAPSIS":"538.684","ARG_OF_PERICENTER":"94.9117","LAUNCH_DATE":"2022-01-06","INCLINATION":"53.2157","OBJECT_TYPE":"PAYLOAD","RCS_SIZE":"LARGE","OBJECT_ID":"2022-001AL","GP_ID":"230742518","MEAN_MOTION_DDOT":"0.0000000000000","FILE":"3894092","TLE_LINE1":"1 50837U 22001AL  23115.42320014 -.00010997  00000-0 -67457-3 0  9996","ELEMENT_SET_NO":"999","OBJECT_NAME":"STARLINK-3318","MEAN_MOTION":"15.08801841","EPOCH":"2023-04-25T10:09:24.492096","MEAN_MOTION_DOT":"-0.00010997","TIME_SYSTEM":"UTC","RA_OF_ASC_NODE":"199.4581","PERIOD":"95.440","MEAN_ANOMALY":"265.2069","SEMIMAJOR_AXIS":"6917.997","APOAPSIS":"541.040"},{"TIME_SYSTEM":"UTC","MEAN_MOTION_DOT":"0.00017351","EPOCH":"2023-04-25T11:10:56.860032","SEMIMAJOR_AXIS":"6895.423","MEAN_ANOMALY":"239.3796","PERIOD":"94.973","APOAPSIS":"518.369","RA_OF_ASC_NODE":"205.4906","FILE":"3894092","MEAN_MOTION":"15.16217191","OBJECT_NAME":"STARLINK-3322","ELEMENT_SET_NO":"999","TLE_LINE1":"1 50838U 22001AM  23115.46593588  .00017351  00000-0  90090-3 0  9997","PERIAPSIS":"516.207","LAUNCH_DATE":"2022-01-06","ARG_OF_PERICENTER":"120.7354","GP_ID":"230743769","MEAN_MOTION_DDOT":"0.0000000000000","INCLINATION":"53.2173","RCS_SIZE":"LARGE","OBJECT_ID":"2022-001AM","OBJECT_TYPE":"PAYLOAD","REV_AT_EPOCH":"7192","NORAD_CAT_ID":"50838","BSTAR":"0.00090090000000","ECCENTRICITY":"0.00015680","CENTER_NAME":"EARTH","TLE_LINE2":"2 50838  53.2173 205.4906 0001568 120.7354 239.3796 15.16217191 71927","CLASSIFICATION_TYPE":"U","EPHEMERIS_TYPE":"0","MEAN_ELEMENT_THEORY":"SGP4","SITE":"AFETR","COUNTRY_CODE":"US","DECAY_DATE":null,"REF_FRAME":"TEME"},{"ARG_OF_PERICENTER":"74.3793","LAUNCH_DATE":"2022-01-06","PERIAPSIS":"539.136","MEAN_MOTION_DDOT":"0.0000000000000","GP_ID":"230743519","OBJECT_TYPE":"PAYLOAD","RCS_SIZE":"LARGE","OBJECT_ID":"2022-001AN","INCLINATION":"53.2173","NORAD_CAT_ID":"50839","REV_AT_EPOCH":"7185","ECCENTRICITY":"0.00010360","BSTAR":"-0.00055138000000","SITE":"AFETR","CLASSIFICATION_TYPE":"U","MEAN_ELEMENT_THEORY":"SGP4","EPHEMERIS_TYPE":"0","CENTER_NAME":"EARTH","TLE_LINE2":"2 50839  53.2173 209.3805 0001036  74.3793 285.7314 15.08804956 71855","REF_FRAME":"TEME","DECAY_DATE":null,"COUNTRY_CODE":"US","MEAN_MOTION_DOT":"-0.00009044","TIME_SYSTEM":"UTC","EPOCH":"2023-04-25T10:34:34.593024","APOAPSIS":"540.569","PERIOD":"95.440","MEAN_ANOMALY":"285.7314","SEMIMAJOR_AXIS":"6917.988","RA_OF_ASC_NODE":"209.3805","FILE":"3894092","MEAN_MOTION":"15.08804956","TLE_LINE1":"1 50839U 22001AN  23115.44067816 -.00009044  00000-0 -55138-3 0  9992","ELEMENT_SET_NO":"999","OBJECT_NAME":"STARLINK-3320"},{"ECCENTRICITY":"0.00011660","BSTAR":"-0.00019090000000","NORAD_CAT_ID":"50840","REV_AT_EPOCH":"7185","DECAY_DATE":null,"REF_FRAME":"TEME","COUNTRY_CODE":"US","SITE":"AFETR","CLASSIFICATION_TYPE":"U","EPHEMERIS_TYPE":"0","MEAN_ELEMENT_THEORY":"SGP4","CENTER_NAME":"EARTH","TLE_LINE2":"2 50840  53.2142 209.3993 0001166 125.1613 234.9489 15.08805205 71858","ARG_OF_PERICENTER":"125.1613","LAUNCH_DATE":"2022-01-06","PERIAPSIS":"539.045","OBJECT_TYPE":"PAYLOAD","OBJECT_ID":"2022-001AP","RCS_SIZE":"LARGE","INCLINATION":"53.2142","MEAN_MOTION_DDOT":"0.0000000000000","GP_ID":"230742268","FILE":"3894092","TLE_LINE1":"1 50840U 22001AP  23115.43697815 -.00003322  00000-0 -19090-3 0  9991","ELEMENT_SET_NO":"999","OBJECT_NAME":"STARLINK-3295","MEAN_MOTION":"15.08805205","EPOCH":"2023-04-25T10:29:14.912160","MEAN_MOTION_DOT":"-0.00003322","TIME_SYSTEM":"UTC","RA_OF_ASC_NODE":"209.3993","APOAPSIS":"540.658","PERIOD":"95.440","SEMIMAJOR_AXIS":"6917.987","MEAN_ANOMALY":"234.9489"},{"EPOCH":"2023-04-25T10:45:09.144864","TIME_SYSTEM":"UTC","MEAN_MOTION_DOT":"0.00013702","RA_OF_ASC_NODE":"209.3454","APOAPSIS":"541.134","MEAN_ANOMALY":"264.6174","SEMIMAJOR_AXIS":"6918.019","PERIOD":"95.440","FILE":"3894092","OBJECT_NAME":"STARLINK-3300","ELEMENT_SET_NO":"999","TLE_LINE1":"1 50841U 22001AQ  23115.44802251  .00013702  00000-0  87837-3 0  9990","MEAN_MOTION":"15.08794539","LAUNCH_DATE":"2022-01-06","ARG_OF_PERICENTER":"95.5025","PERIAPSIS":"538.634","OBJECT_ID":"2022-001AQ","RCS_SIZE":"LARGE","OBJECT_TYPE":"PAYLOAD","INCLINATION":"53.2143","MEAN_MOTION_DDOT":"0.0000000000000","GP_ID":"230743018","BSTAR":"0.00087837000000","ECCENTRICITY":"0.00018070","NORAD_CAT_ID":"50841","REV_AT_EPOCH":"7186","COUNTRY_CODE":"US","DECAY_DATE":null,"REF_FRAME":"TEME","SITE":"AFETR","TLE_LINE2":"2 50841  53.2143 209.3454 0001807  95.5025 264.6174 15.08794539 71860","CENTER_NAME":"EARTH","EPHEMERIS_TYPE":"0","CLASSIFICATION_TYPE":"U","MEAN_ELEMENT_THEORY":"SGP4"},{"TIME_SYSTEM":"UTC","MEAN_MOTION_DOT":"0.00004139","EPOCH":"2023-04-25T10:23:57.465600","MEAN_ANOMALY":"41.3973","SEMIMAJOR_AXIS":"6917.978","PERIOD":"95.440","APOAPSIS":"540.271","RA_OF_ASC_NODE":"209.4159","FILE":"3894092","MEAN_MOTION":"15.08808202","ELEMENT_SET_NO":"999","OBJECT_NAME":"STARLINK-3302","TLE_LINE1":"1 50842U 22001AR  23115.43330400  .00004139  00000-0  27819-3 0  9990","PERIAPSIS":"539.414","LAUNCH_DATE":"2022-01-06","ARG_OF_PERICENTER":"318.6972","GP_ID":"230743269","MEAN_MOTION_DDOT":"0.0000000000000","INCLINATION":"53.2148","RCS_SIZE":"LARGE","OBJECT_ID":"2022-001AR","OBJECT_TYPE":"PAYLOAD","REV_AT_EPOCH":"7185","NORAD_CAT_ID":"50842","BSTAR":"0.00027819000000","ECCENTRICITY":"0.00006190","TLE_LINE2":"2 50842  53.2148 209.4159 0000619 318.6972  41.3973 15.08808202 71858","CENTER_NAME":"EARTH","CLASSIFICATION_TYPE":"U","MEAN_ELEMENT_THEORY":"SGP4","EPHEMERIS_TYPE":"0","SITE":"AFETR","COUNTRY_CODE":"US","DECAY_DATE":null,"REF_FRAME":"TEME"}];
